[{"OBJECT_NAME":"SHIYAN-24C 03","OBJECT_ID":"2023-206C","EPOCH":"2026-03-09T21:23:43.281888","MEAN_MOTION":14.97896938,"ECCENTRICITY":0.0002411,"INCLINATION":97.3969,"RA_OF_ASC_NODE":41.7507,"ARG_OF_PERICENTER":66.6237,"MEAN_ANOMALY":293.524,"EPHEMERIS_TYPE":0,"CLASSIFICATION_TYPE":"U","NORAD_CAT_ID":58652,"ELEMENT_SET_NO":999,"REV_AT_EPOCH":12043,"BSTAR":0.00011928,"MEAN_MOTION_DOT":1.35e-5,"MEAN_MOTION_DDOT":0},{"OBJECT_NAME":"STARLINK-33901","OBJECT_ID":"2025-094Q","EPOCH":"2026-03-09T20:25:37.134336","MEAN_MOTION":14.98313761,"ECCENTRICITY":0.00030915,"INCLINATION":70.0016,"RA_OF_ASC_NODE":234.1936,"ARG_OF_PERICENTER":241.9102,"MEAN_ANOMALY":118.1745,"EPHEMERIS_TYPE":0,"CLASSIFICATION_TYPE":"U","NORAD_CAT_ID":63878,"ELEMENT_SET_NO":999,"REV_AT_EPOCH":4722,"BSTAR":0.0010054032,"MEAN_MOTION_DOT":0.00011919,"MEAN_MOTION_DDOT":0}]
